0 FENGYUN 1C DEB
1 30622U 99025AND 13281.48145983  .00002869  00000-0  21507-2 0  7029
2 30622 100.9811 010.1759 0123383 048.3054 009.0250 13.92073206339714
0 FENGYUN 1C DEB
1 30622U 99025AND 13283.49389068  .00003203  00000-0  23956-2 0  7030
2 30622 100.9810 012.5556 0123182 043.1128 014.3787 13.92090954339999
0 FENGYUN 1C DEB
1 30622U 99025AND 13286.09349804  .00003068  00000-0  22965-2 0  7042
2 30622 100.9817 015.6301 0123015 036.4087 082.5297 13.92104105340351
0 FENGYUN 1C DEB
1 30622U 99025AND 13288.10571303  .00004730  00000-0  35158-2 0  7053
2 30622 100.9820 018.0096 0122981 031.2522 086.9738 13.92116242340635
0 FENGYUN 1C DEB
1 30622U 99025AND 13290.11754985  .00004209  00000-0  31330-2 0  7066
2 30622 100.9822 020.3890 0122940 026.1003 089.6241 13.92129685340912
0 FENGYUN 1C DEB
1 30622U 99025AND 13292.12970176  .00003865  00000-0  28801-2 0  7078
2 30622 100.9821 022.7691 0122942 020.9270 093.9749 13.92144671341190
0 FENGYUN 1C DEB
1 30622U 99025AND 13294.14198273  .00004132  00000-0  30751-2 0  7088
2 30622 100.9817 025.1493 0122916 015.7338 099.0984 13.92159204341477
